0 TELSTAR 3D R/B(PAM-D)
1 15837U 85048H   13280.89971661  .00001009  00000-0  13410-2 0  4503
2 15837 025.0744 191.0492 7256702 079.8145 114.2707 02.26123115178648
0 TELSTAR 3D R/B(PAM-D)
1 15837U 85048H   13282.09295112  .00001040  00000-0  13752-2 0  4512
2 15837 025.0733 190.6015 7256733 080.5661 005.6208 02.26127505178677
0 TELSTAR 3D R/B(PAM-D)
1 15837U 85048H   13284.14951220  .00001140  00000-0  14975-2 0  4529
2 15837 025.0717 189.8282 7256764 081.8596 239.7991 02.26131505178720
0 TELSTAR 3D R/B(PAM-D)
1 15837U 85048H   13286.95145135  .00001144  00000-0  15090-2 0  4545
2 15837 025.0705 188.7736 7256821 083.6247 000.8163 02.26137288178784
0 TELSTAR 3D R/B(PAM-D)
1 15837U 85048H   13289.17383250  .00001107  00000-0  15006-2 0  4551
2 15837 025.0700 187.9390 7256811 085.0209 010.0669 02.26143596178838
0 TELSTAR 3D R/B(PAM-D)
1 15837U 85048H   13290.47133571  .00001135  00000-0  14897-2 0  4575
2 15837 025.0671 187.4449 7258360 085.8464 346.3997 02.26145334178850
0 TELSTAR 3D R/B(PAM-D)
1 15837U 85048H   13290.52654421  .00001172  00000-0  16205-2 0  4568
2 15837 025.0698 187.4309 7256797 085.8704 031.3421 02.26146237178860
0 TELSTAR 3D R/B(PAM-D)
1 15837U 85048H   13292.46415843  .00001125  00000-0  15770-2 0  4571
2 15837 025.0696 186.7019 7256850 087.0870 168.8226 02.26150362178915
0 TELSTAR 3D R/B(PAM-D)
1 15837U 85048H   13294.03049490  .00001070  00000-0  14927-2 0  4580
2 15837 025.0696 186.1120 7256948 088.0731 004.0511 02.26155576178940
